ORBCOMM FM05            
1 25117U 97084F   24211.43586218  .00002645  00000+0  82229-3 0  9993
2 25117  45.0150 114.7772 0003212  37.3623 322.7450 14.43154604393936
ORBCOMM FM06            
1 25118U 97084G   24211.49275620  .00002846  00000+0  87970-3 0  9993
2 25118  45.0142 114.6246 0002368  46.3691 123.4704 14.43254163394850
ORBCOMM FM07            
1 25119U 97084H   24211.45651158  .00002705  00000+0  84002-3 0  9991
2 25119  45.0137 115.3882 0003920  29.8098 330.2975 14.43151117394843
ORBCOMM FM03            
1 25158U 98007B   24211.41624930  .00002401  00000+0  92172-3 0  9994
2 25158 107.9709 193.3482 0045470  92.1989 268.4357 14.32508031377788
ORBCOMM FM04            
1 25159U 98007C   24211.38988956  .00002330  00000+0  89315-3 0  9998
2 25159 107.9696 196.2877 0041092  89.8360 270.7488 14.32777467377957
ORBCOMM FM17            
1 25413U 98046A   24211.50972213  .00001504  00000+0  59048-3 0  9999
2 25413  44.9963 338.7547 0000447  37.8686 322.2191 14.33428730356843
ORBCOMM FM18            
1 25414U 98046B   24211.41685376  .00001725  00000+0  63286-3 0  9995
2 25414  44.9932 264.5581 0001629 107.5732 252.5293 14.36287720357804
ORBCOMM FM19            
1 25415U 98046C   24211.56106748  .00001802  00000+0  66103-3 0  9990
2 25415  44.9941 265.3962 0000398  87.0796  66.7293 14.36120558357980
